[{"OBJECT_NAME":"STARLINK-1063","OBJECT_ID":"2019-074BH","EPOCH":"2026-03-09T18:03:14.732640","MEAN_MOTION":15.29959368,"ECCENTRICITY":0.00012189,"INCLINATION":53.1603,"RA_OF_ASC_NODE":219.104,"ARG_OF_PERICENTER":60.1573,"MEAN_ANOMALY":299.9548,"EPHEMERIS_TYPE":0,"CLASSIFICATION_TYPE":"U","NORAD_CAT_ID":44768,"ELEMENT_SET_NO":999,"REV_AT_EPOCH":34832,"BSTAR":-0.029857537,"MEAN_MOTION_DOT":-0.00812325,"MEAN_MOTION_DDOT":0},{"OBJECT_NAME":"CZ-4C R\/B","OBJECT_ID":"2022-106B","EPOCH":"2026-03-09T16:53:51.363744","MEAN_MOTION":15.02433181,"ECCENTRICITY":0.01103472,"INCLINATION":98.0511,"RA_OF_ASC_NODE":147.9459,"ARG_OF_PERICENTER":124.4586,"MEAN_ANOMALY":236.7124,"EPHEMERIS_TYPE":0,"CLASSIFICATION_TYPE":"U","NORAD_CAT_ID":53699,"ELEMENT_SET_NO":999,"REV_AT_EPOCH":19198,"BSTAR":0.00037068081,"MEAN_MOTION_DOT":5.536e-5,"MEAN_MOTION_DDOT":0}]
